SZ-21 MODULE            
1 66515U 25246C   26064.80716873  .00041310  00000+0  36032-3 0  9995
2 66515  41.4734 227.2544 0001427 292.1430  67.9260 15.68194204 17467
SHENZHOU-22             
1 66645U 25272A   26064.93979305  .00018582  00000+0  22289-3 0  9997
2 66645  41.4658 230.9734 0006880 250.1024 109.9073 15.60447182267520
SOYUZ-MS 28             
1 66664U 25275A   26065.22200803  .00008136  00000+0  15844-3 0  9997
2 66664  51.6317  89.5003 0008136 162.2758 197.8515 15.48470661554526
DUPLEX                  
1 66906U 98067XS  26065.24663383  .00030778  00000+0  44000-3 0  9996
2 66906  51.6285  86.6685 0002157  97.4902 262.6335 15.55952747 14597
ISS OBJECT XT           
1 66907U 98067XT  26065.27003484  .00153072  00000+0  13312-2 0  9994
2 66907  51.6248  83.0631 0004674  56.5604 303.5839 15.68035860 14642
ISS OBJECT XU           
1 66908U 98067XU  26065.33220126  .00152767  00000+0  13221-2 0  9995
2 66908  51.6249  82.7244 0004715  58.9313 301.2145 15.68155385 14650
SILVERSAT               
1 66909U 98067XV  26065.27564600  .00189452  00000+0  14661-2 0  9997
2 66909  51.6242  82.3461 0005530  54.5981 305.5533 15.70734240 14654
ISS OBJECT XW           
1 66910U 98067XW  26065.26358810  .00133096  00000+0  11875-2 0  9999
2 66910  51.6239  83.0117 0005027  65.9559 294.1963 15.67476946 14647
ISS OBJECT XX           
1 66911U 98067XX  26065.27905272  .00237204  00000+0  16237-2 0  9994
2 66911  51.6211  81.6018 0007007  62.4231 297.7478 15.73472479 14656
ISS OBJECT XY           
1 66912U 98067XY  26065.25754875  .00090381  00000+0  97321-3 0  9991
2 66912  51.6266  84.4872 0003031  69.1167 291.0151 15.62944629 14611
ISS OBJECT XZ           
1 67683U 98067XZ  26065.24980627  .00039477  00000+0  65901-3 0  9990
2 67683  51.6308  88.9378 0009404 174.3573 185.7524 15.51506562  4254
GXIBA-1                 
1 67684U 98067YA  26065.22771507  .00075699  00000+0  11560-2 0  9991
2 67684  51.6295  88.7906 0010987 164.2519 195.8815 15.53679638  4253
CORAL                   
1 67685U 98067YB  26065.24612910  .00042651  00000+0  70253-3 0  9993
2 67685  51.6312  88.9138 0011323 170.6186 189.5017 15.51824110  4258
ISS OBJECT YC           
1 67686U 98067YC  26065.24171538  .00050083  00000+0  81033-3 0  9996
2 67686  51.6306  88.8853 0007809 138.1788 221.9799 15.52288949  4259
LEOPARD                 
1 67687U 98067YD  26065.24784318  .00042747  00000+0  70897-3 0  9997
2 67687  51.6309  88.9257 0007791 142.6903 217.4629 15.51667616  4175
ISS OBJECT YE           
1 67688U 98067YE  26065.24369296  .00045678  00000+0  74593-3 0  9995
2 67688  51.6311  88.8989 0007710 138.4184 221.7393 15.52071816  4173
